CCSDS_OMM_VERS = 2.0
CREATION_DATE  = 
ORIGINATOR     = 

OBJECT_NAME    = SL-3 R/B
OBJECT_ID      = 1982-079B
CENTER_NAME    = EARTH
REF_FRAME      = TEME
TIME_SYSTEM    = UTC
MEAN_ELEMENT_THEORY = SGP/SGP4

EPOCH          = 2026-04-03T19:08:37.684896
MEAN_MOTION    = 15.25145004
ECCENTRICITY   = .0025445
INCLINATION    = 81.1475
RA_OF_ASC_NODE = 163.4293
ARG_OF_PERICENTER = 82.4910
MEAN_ANOMALY   = 277.9213

EPHEMERIS_TYPE = 0
CLASSIFICATION_TYPE = U
NORAD_CAT_ID   = 13403
ELEMENT_SET_NO = 999
REV_AT_EPOCH   = 38152
BSTAR          = .39417E-3
MEAN_MOTION_DOT = .9998E-4
MEAN_MOTION_DDOT = 0

CCSDS_OMM_VERS = 2.0
CREATION_DATE  = 
ORIGINATOR     = 

OBJECT_NAME    = SL-14 R/B
OBJECT_ID      = 1982-092B
CENTER_NAME    = EARTH
REF_FRAME      = TEME
TIME_SYSTEM    = UTC
MEAN_ELEMENT_THEORY = SGP/SGP4

EPOCH          = 2026-04-03T13:21:35.665920
MEAN_MOTION    = 14.86690469
ECCENTRICITY   = .00193938
INCLINATION    = 82.5651
RA_OF_ASC_NODE = 118.1350
ARG_OF_PERICENTER = 215.0194
MEAN_ANOMALY   = 259.5108

EPHEMERIS_TYPE = 0
CLASSIFICATION_TYPE = U
NORAD_CAT_ID   = 13553
ELEMENT_SET_NO = 999
REV_AT_EPOCH   = 33262
BSTAR          = .7761017E-4
MEAN_MOTION_DOT = .716E-5
MEAN_MOTION_DDOT = 0

CCSDS_OMM_VERS = 2.0
CREATION_DATE  = 
ORIGINATOR     = 

OBJECT_NAME    = SL-3 R/B
OBJECT_ID      = 1983-010B
CENTER_NAME    = EARTH
REF_FRAME      = TEME
TIME_SYSTEM    = UTC
MEAN_ELEMENT_THEORY = SGP/SGP4

EPOCH          = 2026-04-03T17:33:30.226176
MEAN_MOTION    = 15.47228925
ECCENTRICITY   = .001548
INCLINATION    = 81.1033
RA_OF_ASC_NODE = 331.5289
ARG_OF_PERICENTER = 323.9367
MEAN_ANOMALY   = 36.0832

EPHEMERIS_TYPE = 0
CLASSIFICATION_TYPE = U
NORAD_CAT_ID   = 13819
ELEMENT_SET_NO = 999
REV_AT_EPOCH   = 36181
BSTAR          = .45266E-3
MEAN_MOTION_DOT = .232E-3
MEAN_MOTION_DDOT = 0

CCSDS_OMM_VERS = 2.0
CREATION_DATE  = 
ORIGINATOR     = 

OBJECT_NAME    = SL-3 R/B
OBJECT_ID      = 1983-075B
CENTER_NAME    = EARTH
REF_FRAME      = TEME
TIME_SYSTEM    = UTC
MEAN_ELEMENT_THEORY = SGP/SGP4

EPOCH          = 2026-04-03T18:56:31.873920
MEAN_MOTION    = 15.39048036
ECCENTRICITY   = .0022791
INCLINATION    = 97.6135
RA_OF_ASC_NODE = 99.3284
ARG_OF_PERICENTER = 136.3850
MEAN_ANOMALY   = 223.9202

EPHEMERIS_TYPE = 0
CLASSIFICATION_TYPE = U
NORAD_CAT_ID   = 14208
ELEMENT_SET_NO = 999
REV_AT_EPOCH   = 33401
BSTAR          = .48149E-3
MEAN_MOTION_DOT = .18722E-3
MEAN_MOTION_DDOT = 0

CCSDS_OMM_VERS = 2.0
CREATION_DATE  = 
ORIGINATOR     = 

OBJECT_NAME    = COSMOS 1536
OBJECT_ID      = 1984-013A
CENTER_NAME    = EARTH
REF_FRAME      = TEME
TIME_SYSTEM    = UTC
MEAN_ELEMENT_THEORY = SGP/SGP4

EPOCH          = 2026-04-03T11:21:45.981504
MEAN_MOTION    = 15.24186980
ECCENTRICITY   = .00139716
INCLINATION    = 82.5419
RA_OF_ASC_NODE = 83.2004
ARG_OF_PERICENTER = 187.2704
MEAN_ANOMALY   = 172.8333

EPHEMERIS_TYPE = 0
CLASSIFICATION_TYPE = U
NORAD_CAT_ID   = 14699
ELEMENT_SET_NO = 999
REV_AT_EPOCH   = 27639
BSTAR          = .46277297E-3
MEAN_MOTION_DOT = .11335E-3
MEAN_MOTION_DDOT = 0

CCSDS_OMM_VERS = 2.0
CREATION_DATE  = 
ORIGINATOR     = 

OBJECT_NAME    = SL-14 R/B
OBJECT_ID      = 1984-027B
CENTER_NAME    = EARTH
REF_FRAME      = TEME
TIME_SYSTEM    = UTC
MEAN_ELEMENT_THEORY = SGP/SGP4

EPOCH          = 2026-04-03T19:26:05.949312
MEAN_MOTION    = 14.86005939
ECCENTRICITY   = .0016617
INCLINATION    = 82.5426
RA_OF_ASC_NODE = 221.4525
ARG_OF_PERICENTER = 248.5390
MEAN_ANOMALY   = 111.4054

EPHEMERIS_TYPE = 0
CLASSIFICATION_TYPE = U
NORAD_CAT_ID   = 14820
ELEMENT_SET_NO = 999
REV_AT_EPOCH   = 25136
BSTAR          = .9778E-4
MEAN_MOTION_DOT = .88E-5
MEAN_MOTION_DDOT = 0

CCSDS_OMM_VERS = 2.0
CREATION_DATE  = 
ORIGINATOR     = 

OBJECT_NAME    = SL-8 R/B
OBJECT_ID      = 1985-006B
CENTER_NAME    = EARTH
REF_FRAME      = TEME
TIME_SYSTEM    = UTC
MEAN_ELEMENT_THEORY = SGP/SGP4

EPOCH          = 2026-04-03T18:51:33.274656
MEAN_MOTION    = 14.37802490
ECCENTRICITY   = .0017476
INCLINATION    = 74.0460
RA_OF_ASC_NODE = 214.9674
ARG_OF_PERICENTER = 125.2686
MEAN_ANOMALY   = 346.4170

EPHEMERIS_TYPE = 0
CLASSIFICATION_TYPE = U
NORAD_CAT_ID   = 15483
ELEMENT_SET_NO = 999
REV_AT_EPOCH   = 15763
BSTAR          = .16926E-3
MEAN_MOTION_DOT = .485E-5
MEAN_MOTION_DDOT = 0

CCSDS_OMM_VERS = 2.0
CREATION_DATE  = 
ORIGINATOR     = 

OBJECT_NAME    = SL-12 R/B(2)
OBJECT_ID      = 1985-042D
CENTER_NAME    = EARTH
REF_FRAME      = TEME
TIME_SYSTEM    = UTC
MEAN_ELEMENT_THEORY = SGP/SGP4

EPOCH          = 2026-04-03T21:04:04.193184
MEAN_MOTION    = 14.21990259
ECCENTRICITY   = .0032838
INCLINATION    = 71.1099
RA_OF_ASC_NODE = 34.5111
ARG_OF_PERICENTER = 86.3032
MEAN_ANOMALY   = 334.4931

EPHEMERIS_TYPE = 0
CLASSIFICATION_TYPE = U
NORAD_CAT_ID   = 15772
ELEMENT_SET_NO = 999
REV_AT_EPOCH   = 11797
BSTAR          = .12885E-3
MEAN_MOTION_DOT = .239E-5
MEAN_MOTION_DDOT = 0

CCSDS_OMM_VERS = 2.0
CREATION_DATE  = 
ORIGINATOR     = 

OBJECT_NAME    = SL-14 R/B
OBJECT_ID      = 1985-069B
CENTER_NAME    = EARTH
REF_FRAME      = TEME
TIME_SYSTEM    = UTC
MEAN_ELEMENT_THEORY = SGP/SGP4

EPOCH          = 2026-04-03T18:53:09.506976
MEAN_MOTION    = 14.86462344
ECCENTRICITY   = .0020291
INCLINATION    = 82.5304
RA_OF_ASC_NODE = 1.3406
ARG_OF_PERICENTER = 107.7626
MEAN_ANOMALY   = 252.5807

EPHEMERIS_TYPE = 0
CLASSIFICATION_TYPE = U
NORAD_CAT_ID   = 15945
ELEMENT_SET_NO = 999
REV_AT_EPOCH   = 17656
BSTAR          = .89774E-4
MEAN_MOTION_DOT = .821E-5
MEAN_MOTION_DDOT = 0

CCSDS_OMM_VERS = 2.0
CREATION_DATE  = 
ORIGINATOR     = 

OBJECT_NAME    = SL-16 R/B
OBJECT_ID      = 1985-097B
CENTER_NAME    = EARTH
REF_FRAME      = TEME
TIME_SYSTEM    = UTC
MEAN_ELEMENT_THEORY = SGP/SGP4

EPOCH          = 2026-04-03T17:20:55.500576
MEAN_MOTION    = 14.16602742
ECCENTRICITY   = .0009232
INCLINATION    = 71.0008
RA_OF_ASC_NODE = 87.8491
ARG_OF_PERICENTER = 229.9561
MEAN_ANOMALY   = 302.5407

EPHEMERIS_TYPE = 0
CLASSIFICATION_TYPE = U
NORAD_CAT_ID   = 16182
ELEMENT_SET_NO = 999
REV_AT_EPOCH   = 9077
BSTAR          = -.55333E-4
MEAN_MOTION_DOT = -.158E-5
MEAN_MOTION_DDOT = 0

CCSDS_OMM_VERS = 2.0
CREATION_DATE  = 
ORIGINATOR     = 

OBJECT_NAME    = SL-14 R/B
OBJECT_ID      = 1986-006B
CENTER_NAME    = EARTH
REF_FRAME      = TEME
TIME_SYSTEM    = UTC
MEAN_ELEMENT_THEORY = SGP/SGP4

EPOCH          = 2026-04-03T18:10:50.672352
MEAN_MOTION    = 14.86861429
ECCENTRICITY   = .0076263
INCLINATION    = 82.5261
RA_OF_ASC_NODE = 236.1399
ARG_OF_PERICENTER = 188.5155
MEAN_ANOMALY   = 171.4775

EPHEMERIS_TYPE = 0
CLASSIFICATION_TYPE = U
NORAD_CAT_ID   = 16496
ELEMENT_SET_NO = 999
REV_AT_EPOCH   = 15293
BSTAR          = .15997E-3
MEAN_MOTION_DOT = .1531E-4
MEAN_MOTION_DDOT = 0

CCSDS_OMM_VERS = 2.0
CREATION_DATE  = 
ORIGINATOR     = 

OBJECT_NAME    = COSMOS 1743
OBJECT_ID      = 1986-034A
CENTER_NAME    = EARTH
REF_FRAME      = TEME
TIME_SYSTEM    = UTC
MEAN_ELEMENT_THEORY = SGP/SGP4

EPOCH          = 2026-04-03T20:35:14.045280
MEAN_MOTION    = 15.60862346
ECCENTRICITY   = .0005554
INCLINATION    = 82.5323
RA_OF_ASC_NODE = 47.3739
ARG_OF_PERICENTER = 156.3545
MEAN_ANOMALY   = 203.7968

EPHEMERIS_TYPE = 0
CLASSIFICATION_TYPE = U
NORAD_CAT_ID   = 16719
ELEMENT_SET_NO = 999
REV_AT_EPOCH   = 18417
BSTAR          = .91391E-3
MEAN_MOTION_DOT = .76912E-3
MEAN_MOTION_DDOT = 0

